{
  "type": "FeatureCollection",
  "features": [
    {
      "type": "Feature",
      "properties": {
        "norad_id": 15362,
        "name": "NOVA 3",
        "group": "nnss",
        "lat": 85.39318678970615,
        "lon": 79.1862106533175,
        "alt_km": 1185.8195661073814,
        "timestamp": "2025-12-26T14:28:47.970411+00:00",
        "meta_object_name": "NOVA 3",
        "meta_object_id": "1984-110A",
        "meta_epoch": "2025-12-26T05:14:25.015776",
        "meta_mean_motion": 13.2304636,
        "meta_eccentricity": 0.00298457,
        "meta_inclination": 90.1217,
        "meta_ra_of_asc_node": 80.6931,
        "meta_arg_of_pericenter": 293.0213,
        "meta_mean_anomaly": 119.6055,
        "meta_ephemeris_type": 0,
        "meta_classification_type": "U",
        "meta_norad_cat_id": 15362,
        "meta_element_set_no": 999,
        "meta_rev_at_epoch": 98877,
        "meta_bstar": 0.00015302465,
        "meta_mean_motion_dot": 7.3e-07,
        "meta_mean_motion_ddot": 0,
        "tle_line1": "1 15362U 84110A   25360.21834509  .00000073  00000+0  15302-3 0  9992",
        "tle_line2": "2 15362  90.1217  80.6931 0029845 293.0213 119.6055 13.23046360988778"
      },
      "geometry": {
        "type": "Point",
        "coordinates": [
          79.1862106533175,
          85.39318678970615
        ]
      }
    },
    {
      "type": "Feature",
      "properties": {
        "norad_id": 15935,
        "name": "OSCAR 30",
        "group": "nnss",
        "lat": 82.84102788226703,
        "lon": -78.6093037318592,
        "alt_km": 1037.263418020405,
        "timestamp": "2025-12-26T14:28:47.970421+00:00",
        "meta_object_name": "OSCAR 30",
        "meta_object_id": "1985-066A",
        "meta_epoch": "2025-12-26T06:53:54.148128",
        "meta_mean_motion": 13.36080592,
        "meta_eccentricity": 0.01687792,
        "meta_inclination": 90.1653,
        "meta_ra_of_asc_node": 100.0686,
        "meta_arg_of_pericenter": 46.0311,
        "meta_mean_anomaly": 331.0447,
        "meta_ephemeris_type": 0,
        "meta_classification_type": "U",
        "meta_norad_cat_id": 15935,
        "meta_element_set_no": 999,
        "meta_rev_at_epoch": 96634,
        "meta_bstar": 0.00016935585,
        "meta_mean_motion_dot": 1.04e-06,
        "meta_mean_motion_ddot": 0,
        "tle_line1": "1 15935U 85066A   25360.28743227  .00000104  00000+0  16936-3 0  9991",
        "tle_line2": "2 15935  90.1653 100.0686 0168779  46.0311 331.0447 13.36080592966340"
      },
      "geometry": {
        "type": "Point",
        "coordinates": [
          -78.6093037318592,
          82.84102788226703
        ]
      }
    },
    {
      "type": "Feature",
      "properties": {
        "norad_id": 15936,
        "name": "OSCAR 24",
        "group": "nnss",
        "lat": 14.242291371638307,
        "lon": -87.40394547974616,
        "alt_km": 1175.5385442462903,
        "timestamp": "2025-12-26T14:28:47.970432+00:00",
        "meta_object_name": "OSCAR 24",
        "meta_object_id": "1985-066B",
        "meta_epoch": "2025-12-26T06:35:17.822976",
        "meta_mean_motion": 13.3593777,
        "meta_eccentricity": 0.01699616,
        "meta_inclination": 90.179,
        "meta_ra_of_asc_node": 92.5448,
        "meta_arg_of_pericenter": 52.5199,
        "meta_mean_anomaly": 330.8458,
        "meta_ephemeris_type": 0,
        "meta_classification_type": "U",
        "meta_norad_cat_id": 15936,
        "meta_element_set_no": 999,
        "meta_rev_at_epoch": 96824,
        "meta_bstar": 0.00015135848,
        "meta_mean_motion_dot": 9.4e-07,
        "meta_mean_motion_ddot": 0,
        "tle_line1": "1 15936U 85066B   25360.27451184  .00000094  00000+0  15136-3 0  9998",
        "tle_line2": "2 15936  90.1790  92.5448 0169961  52.5199 330.8458 13.35937770968242"
      },
      "geometry": {
        "type": "Point",
        "coordinates": [
          -87.40394547974616,
          14.242291371638307
        ]
      }
    },
    {
      "type": "Feature",
      "properties": {
        "norad_id": 17070,
        "name": "POLAR BEAR",
        "group": "nnss",
        "lat": 20.04634218260185,
        "lon": 3.0785387199288903,
        "alt_km": 975.7243045630676,
        "timestamp": "2025-12-26T14:28:47.970443+00:00",
        "meta_object_name": "POLAR BEAR",
        "meta_object_id": "1986-088A",
        "meta_epoch": "2025-12-26T02:02:54.701376",
        "meta_mean_motion": 13.75253549,
        "meta_eccentricity": 0.00412664,
        "meta_inclination": 89.6169,
        "meta_ra_of_asc_node": 183.2393,
        "meta_arg_of_pericenter": 80.8818,
        "meta_mean_anomaly": 35.6003,
        "meta_ephemeris_type": 0,
        "meta_classification_type": "U",
        "meta_norad_cat_id": 17070,
        "meta_element_set_no": 999,
        "meta_rev_at_epoch": 96162,
        "meta_bstar": 0.00010557917,
        "meta_mean_motion_dot": 1.13e-06,
        "meta_mean_motion_ddot": 0,
        "tle_line1": "1 17070U 86088A   25360.08535534  .00000113  00000+0  10558-3 0  9990",
        "tle_line2": "2 17070  89.6169 183.2393 0041266  80.8818  35.6003 13.75253549961622"
      },
      "geometry": {
        "type": "Point",
        "coordinates": [
          3.0785387199288903,
          20.04634218260185
        ]
      }
    },
    {
      "type": "Feature",
      "properties": {
        "norad_id": 18361,
        "name": "OSCAR 27",
        "group": "nnss",
        "lat": -15.223475445484837,
        "lon": 79.89227759374104,
        "alt_km": 1169.1422995601988,
        "timestamp": "2025-12-26T14:28:47.970453+00:00",
        "meta_object_name": "OSCAR 27",
        "meta_object_id": "1987-080A",
        "meta_epoch": "2025-12-26T03:50:36.749184",
        "meta_mean_motion": 13.44909474,
        "meta_eccentricity": 0.01040483,
        "meta_inclination": 90.3736,
        "meta_ra_of_asc_node": 79.774,
        "meta_arg_of_pericenter": 185.2058,
        "meta_mean_anomaly": 174.8018,
        "meta_ephemeris_type": 0,
        "meta_classification_type": "U",
        "meta_norad_cat_id": 18361,
        "meta_element_set_no": 999,
        "meta_rev_at_epoch": 87737,
        "meta_bstar": 0.00016599641,
        "meta_mean_motion_dot": 1.09e-06,
        "meta_mean_motion_ddot": 0,
        "tle_line1": "1 18361U 87080A   25360.16014756  .00000109  00000+0  16600-3 0  9993",
        "tle_line2": "2 18361  90.3736  79.7740 0104048 185.2058 174.8018 13.44909474877375"
      },
      "geometry": {
        "type": "Point",
        "coordinates": [
          79.89227759374104,
          -15.223475445484837
        ]
      }
    },
    {
      "type": "Feature",
      "properties": {
        "norad_id": 18362,
        "name": "OSCAR 29",
        "group": "nnss",
        "lat": -25.308805609539327,
        "lon": 80.42804608444028,
        "alt_km": 1145.773070627214,
        "timestamp": "2025-12-26T14:28:47.970467+00:00",
        "meta_object_name": "OSCAR 29",
        "meta_object_id": "1987-080B",
        "meta_epoch": "2025-12-26T04:01:36.827040",
        "meta_mean_motion": 13.44450933,
        "meta_eccentricity": 0.01048512,
        "meta_inclination": 90.3748,
        "meta_ra_of_asc_node": 80.2344,
        "meta_arg_of_pericenter": 208.3196,
        "meta_mean_anomaly": 178.7197,
        "meta_ephemeris_type": 0,
        "meta_classification_type": "U",
        "meta_norad_cat_id": 18362,
        "meta_element_set_no": 999,
        "meta_rev_at_epoch": 87690,
        "meta_bstar": 0.00014977521,
        "meta_mean_motion_dot": 9.8e-07,
        "meta_mean_motion_ddot": 0,
        "tle_line1": "1 18362U 87080B   25360.16778735  .00000098  00000+0  14978-3 0  9991",
        "tle_line2": "2 18362  90.3748  80.2344 0104851 208.3196 178.7197 13.44450933876908"
      },
      "geometry": {
        "type": "Point",
        "coordinates": [
          80.42804608444028,
          -25.308805609539327
        ]
      }
    },
    {
      "type": "Feature",
      "properties": {
        "norad_id": 19070,
        "name": "OSCAR 23",
        "group": "nnss",
        "lat": -2.6423077246532363,
        "lon": 16.836468205557203,
        "alt_km": 1273.5887735114757,
        "timestamp": "2025-12-26T14:28:47.970490+00:00",
        "meta_object_name": "OSCAR 23",
        "meta_object_id": "1988-033A",
        "meta_epoch": "2025-12-26T07:18:59.249088",
        "meta_mean_motion": 13.2778922,
        "meta_eccentricity": 0.01905714,
        "meta_inclination": 90.3203,
        "meta_ra_of_asc_node": 16.8124,
        "meta_arg_of_pericenter": 142.3052,
        "meta_mean_anomaly": 230.5453,
        "meta_ephemeris_type": 0,
        "meta_classification_type": "U",
        "meta_norad_cat_id": 19070,
        "meta_element_set_no": 999,
        "meta_rev_at_epoch": 82433,
        "meta_bstar": 0.00011377735,
        "meta_mean_motion_dot": 6.6e-07,
        "meta_mean_motion_ddot": 0,
        "tle_line1": "1 19070U 88033A   25360.30485242  .00000066  00000+0  11378-3 0  9997",
        "tle_line2": "2 19070  90.3203  16.8124 0190571 142.3052 230.5453 13.27789220824331"
      },
      "geometry": {
        "type": "Point",
        "coordinates": [
          16.836468205557203,
          -2.6423077246532363
        ]
      }
    }
  ]
}